[
  {
    "COMMENT": "GENERATED VIA SPACETRACK.ORG API",
    "ORIGINATOR": "18 SPCS",
    "NORAD_CAT_ID": "54754",
    "OBJECT_NAME": "SWOT",
    "OBJECT_TYPE": "PAYLOAD",
    "CLASSIFICATION_TYPE": "U",
    "INTLDES": "22173A",
    "EPOCH": "2023-07-27 12:54:13",
    "EPOCH_MICROSECONDS": "315104",
    "MEAN_MOTION": "14.0016797",
    "ECCENTRICITY": "0.0000366",
    "INCLINATION": "77.6105",
    "RA_OF_ASC_NODE": "20.3239",
    "ARG_OF_PERICENTER": "131.9327",
    "MEAN_ANOMALY": "228.1856",
    "EPHEMERIS_TYPE": "0",
    "ELEMENT_SET_NO": "999",
    "REV_AT_EPOCH": "3141",
    "BSTAR": "0.000044585",
    "MEAN_MOTION_DOT": "0.00000063",
    "MEAN_MOTION_DDOT": "0",
    "FILE": "3964647",
    "TLE_LINE0": "0 SWOT",
    "TLE_LINE1": "1 54754U 22173A   23208.53765411  .00000063  00000-0  44585-4 0  9996",
    "TLE_LINE2": "2 54754  77.6105  20.3239 0000366 131.9327 228.1856 14.00167970 31419",
    "OBJECT_ID": "2022-173A",
    "OBJECT_NUMBER": "54754",
    "SEMIMAJOR_AXIS": "7271.351",
    "PERIOD": "102.845",
    "APOGEE": "893.482",
    "PERIGEE": "892.949",
    "DECAYED": "0"
  },
  {
    "COMMENT": "GENERATED VIA SPACETRACK.ORG API",
    "ORIGINATOR": "18 SPCS",
    "NORAD_CAT_ID": "54754",
    "OBJECT_NAME": "SWOT",
    "OBJECT_TYPE": "PAYLOAD",
    "CLASSIFICATION_TYPE": "U",
    "INTLDES": "22173A",
    "EPOCH": "2023-07-27 21:28:41",
    "EPOCH_MICROSECONDS": "598624",
    "MEAN_MOTION": "14.00168034",
    "ECCENTRICITY": "0.000036",
    "INCLINATION": "77.6105",
    "RA_OF_ASC_NODE": "19.8415",
    "ARG_OF_PERICENTER": "130.9666",
    "MEAN_ANOMALY": "229.1517",
    "EPHEMERIS_TYPE": "0",
    "ELEMENT_SET_NO": "999",
    "REV_AT_EPOCH": "3146",
    "BSTAR": "0.000041447",
    "MEAN_MOTION_DOT": "0.00000059",
    "MEAN_MOTION_DDOT": "0",
    "FILE": "3964919",
    "TLE_LINE0": "0 SWOT",
    "TLE_LINE1": "1 54754U 22173A   23208.89492591  .00000059  00000-0  41447-4 0  9990",
    "TLE_LINE2": "2 54754  77.6105  19.8415 0000360 130.9666 229.1517 14.00168034 31469",
    "OBJECT_ID": "2022-173A",
    "OBJECT_NUMBER": "54754",
    "SEMIMAJOR_AXIS": "7271.350",
    "PERIOD": "102.845",
    "APOGEE": "893.477",
    "PERIGEE": "892.954",
    "DECAYED": "0"
  },
  {
    "COMMENT": "GENERATED VIA SPACETRACK.ORG API",
    "ORIGINATOR": "18 SPCS",
    "NORAD_CAT_ID": "54754",
    "OBJECT_NAME": "SWOT",
    "OBJECT_TYPE": "PAYLOAD",
    "CLASSIFICATION_TYPE": "U",
    "INTLDES": "22173A",
    "EPOCH": "2023-07-28 11:11:50",
    "EPOCH_MICROSECONDS": "852256",
    "MEAN_MOTION": "14.00168091",
    "ECCENTRICITY": "0.0000361",
    "INCLINATION": "77.6106",
    "RA_OF_ASC_NODE": "19.0698",
    "ARG_OF_PERICENTER": "129.6756",
    "MEAN_ANOMALY": "230.4427",
    "EPHEMERIS_TYPE": "0",
    "ELEMENT_SET_NO": "999",
    "REV_AT_EPOCH": "3154",
    "BSTAR": "0.000025667",
    "MEAN_MOTION_DOT": "0.00000035",
    "MEAN_MOTION_DDOT": "0",
    "FILE": "3965460",
    "TLE_LINE0": "0 SWOT",
    "TLE_LINE1": "1 54754U 22173A   23209.46656079  .00000035  00000-0  25667-4 0  9997",
    "TLE_LINE2": "2 54754  77.6106  19.0698 0000361 129.6756 230.4427 14.00168091 31548",
    "OBJECT_ID": "2022-173A",
    "OBJECT_NUMBER": "54754",
    "SEMIMAJOR_AXIS": "7271.350",
    "PERIOD": "102.845",
    "APOGEE": "893.478",
    "PERIGEE": "892.953",
    "DECAYED": "0"
  },
  {
    "COMMENT": "GENERATED VIA SPACETRACK.ORG API",
    "ORIGINATOR": "18 SPCS",
    "NORAD_CAT_ID": "54754",
    "OBJECT_NAME": "SWOT",
    "OBJECT_TYPE": "PAYLOAD",
    "CLASSIFICATION_TYPE": "U",
    "INTLDES": "22173A",
    "EPOCH": "2023-07-28 12:54:44",
    "EPOCH_MICROSECONDS": "508960",
    "MEAN_MOTION": "14.00168094",
    "ECCENTRICITY": "0.0000361",
    "INCLINATION": "77.6106",
    "RA_OF_ASC_NODE": "18.9733",
    "ARG_OF_PERICENTER": "129.6974",
    "MEAN_ANOMALY": "230.421",
    "EPHEMERIS_TYPE": "0",
    "ELEMENT_SET_NO": "999",
    "REV_AT_EPOCH": "3155",
    "BSTAR": "0.0000233",
    "MEAN_MOTION_DOT": "0.00000032",
    "MEAN_MOTION_DDOT": "0",
    "FILE": "3965518",
    "TLE_LINE0": "0 SWOT",
    "TLE_LINE1": "1 54754U 22173A   23209.53801515  .00000032  00000-0  23300-4 0  9991",
    "TLE_LINE2": "2 54754  77.6106  18.9733 0000361 129.6974 230.4210 14.00168094 31552",
    "OBJECT_ID": "2022-173A",
    "OBJECT_NUMBER": "54754",
    "SEMIMAJOR_AXIS": "7271.350",
    "PERIOD": "102.845",
    "APOGEE": "893.478",
    "PERIGEE": "892.953",
    "DECAYED": "0"
  },
  {
    "COMMENT": "GENERATED VIA SPACETRACK.ORG API",
    "ORIGINATOR": "18 SPCS",
    "NORAD_CAT_ID": "54754",
    "OBJECT_NAME": "SWOT",
    "OBJECT_TYPE": "PAYLOAD",
    "CLASSIFICATION_TYPE": "U",
    "INTLDES": "22173A",
    "EPOCH": "2023-07-29 11:12:22",
    "EPOCH_MICROSECONDS": "40928",
    "MEAN_MOTION": "14.00168261",
    "ECCENTRICITY": "0.000036",
    "INCLINATION": "77.6107",
    "RA_OF_ASC_NODE": "17.7193",
    "ARG_OF_PERICENTER": "129.3142",
    "MEAN_ANOMALY": "230.8042",
    "EPHEMERIS_TYPE": "0",
    "ELEMENT_SET_NO": "999",
    "REV_AT_EPOCH": "3168",
    "BSTAR": "0.00001566",
    "MEAN_MOTION_DOT": "0.00000021",
    "MEAN_MOTION_DDOT": "0",
    "FILE": "3966342",
    "TLE_LINE0": "0 SWOT",
    "TLE_LINE1": "1 54754U 22173A   23210.46692177  .00000021  00000-0  15660-4 0  9995",
    "TLE_LINE2": "2 54754  77.6107  17.7193 0000360 129.3142 230.8042 14.00168261 31680",
    "OBJECT_ID": "2022-173A",
    "OBJECT_NUMBER": "54754",
    "SEMIMAJOR_AXIS": "7271.350",
    "PERIOD": "102.845",
    "APOGEE": "893.476",
    "PERIGEE": "892.953",
    "DECAYED": "0"
  },
  {
    "COMMENT": "GENERATED VIA SPACETRACK.ORG API",
    "ORIGINATOR": "18 SPCS",
    "NORAD_CAT_ID": "54754",
    "OBJECT_NAME": "SWOT",
    "OBJECT_TYPE": "PAYLOAD",
    "CLASSIFICATION_TYPE": "U",
    "INTLDES": "22173A",
    "EPOCH": "2023-07-30 11:12:53",
    "EPOCH_MICROSECONDS": "234784",
    "MEAN_MOTION": "14.00168453",
    "ECCENTRICITY": "0.0000363",
    "INCLINATION": "77.6108",
    "RA_OF_ASC_NODE": "16.3688",
    "ARG_OF_PERICENTER": "127.9183",
    "MEAN_ANOMALY": "232.2002",
    "EPHEMERIS_TYPE": "0",
    "ELEMENT_SET_NO": "999",
    "REV_AT_EPOCH": "3182",
    "BSTAR": "0.000028723",
    "MEAN_MOTION_DOT": "0.0000004",
    "MEAN_MOTION_DDOT": "0",
    "FILE": "3967196",
    "TLE_LINE0": "0 SWOT",
    "TLE_LINE1": "1 54754U 22173A   23211.46728281  .00000040  00000-0  28723-4 0  9997",
    "TLE_LINE2": "2 54754  77.6108  16.3688 0000363 127.9183 232.2002 14.00168453 31828",
    "OBJECT_ID": "2022-173A",
    "OBJECT_NUMBER": "54754",
    "SEMIMAJOR_AXIS": "7271.349",
    "PERIOD": "102.845",
    "APOGEE": "893.478",
    "PERIGEE": "892.950",
    "DECAYED": "0"
  },
  {
    "COMMENT": "GENERATED VIA SPACETRACK.ORG API",
    "ORIGINATOR": "18 SPCS",
    "NORAD_CAT_ID": "54754",
    "OBJECT_NAME": "SWOT",
    "OBJECT_TYPE": "PAYLOAD",
    "CLASSIFICATION_TYPE": "U",
    "INTLDES": "22173A",
    "EPOCH": "2023-07-31 11:13:24",
    "EPOCH_MICROSECONDS": "426912",
    "MEAN_MOTION": "14.0016864",
    "ECCENTRICITY": "0.0000374",
    "INCLINATION": "77.6109",
    "RA_OF_ASC_NODE": "15.0184",
    "ARG_OF_PERICENTER": "126.1915",
    "MEAN_ANOMALY": "233.9271",
    "EPHEMERIS_TYPE": "0",
    "ELEMENT_SET_NO": "999",
    "REV_AT_EPOCH": "3196",
    "BSTAR": "0.000046102",
    "MEAN_MOTION_DOT": "0.00000065",
    "MEAN_MOTION_DDOT": "0",
    "FILE": "3968043",
    "TLE_LINE0": "0 SWOT",
    "TLE_LINE1": "1 54754U 22173A   23212.46764383  .00000065  00000-0  46102-4 0  9999",
    "TLE_LINE2": "2 54754  77.6109  15.0184 0000374 126.1915 233.9271 14.00168640 31961",
    "OBJECT_ID": "2022-173A",
    "OBJECT_NUMBER": "54754",
    "SEMIMAJOR_AXIS": "7271.348",
    "PERIOD": "102.845",
    "APOGEE": "893.485",
    "PERIGEE": "892.941",
    "DECAYED": "0"
  },
  {
    "COMMENT": "GENERATED VIA SPACETRACK.ORG API",
    "ORIGINATOR": "18 SPCS",
    "NORAD_CAT_ID": "54754",
    "OBJECT_NAME": "SWOT",
    "OBJECT_TYPE": "PAYLOAD",
    "CLASSIFICATION_TYPE": "U",
    "INTLDES": "22173A",
    "EPOCH": "2023-08-01 18:05:30",
    "EPOCH_MICROSECONDS": "241536",
    "MEAN_MOTION": "14.00168805",
    "ECCENTRICITY": "0.0000385",
    "INCLINATION": "77.6111",
    "RA_OF_ASC_NODE": "13.2821",
    "ARG_OF_PERICENTER": "125.4159",
    "MEAN_ANOMALY": "234.7029",
    "EPHEMERIS_TYPE": "0",
    "ELEMENT_SET_NO": "999",
    "REV_AT_EPOCH": "3214",
    "BSTAR": "0.00006902",
    "MEAN_MOTION_DOT": "0.00000099",
    "MEAN_MOTION_DDOT": "0",
    "FILE": "3969120",
    "TLE_LINE0": "0 SWOT",
    "TLE_LINE1": "1 54754U 22173A   23213.75382224  .00000099  00000-0  69020-4 0  9993",
    "TLE_LINE2": "2 54754  77.6111  13.2821 0000385 125.4159 234.7029 14.00168805 32140",
    "OBJECT_ID": "2022-173A",
    "OBJECT_NUMBER": "54754",
    "SEMIMAJOR_AXIS": "7271.348",
    "PERIOD": "102.845",
    "APOGEE": "893.493",
    "PERIGEE": "892.933",
    "DECAYED": "0"
  },
  {
    "COMMENT": "GENERATED VIA SPACETRACK.ORG API",
    "ORIGINATOR": "18 SPCS",
    "NORAD_CAT_ID": "54754",
    "OBJECT_NAME": "SWOT",
    "OBJECT_TYPE": "PAYLOAD",
    "CLASSIFICATION_TYPE": "U",
    "INTLDES": "22173A",
    "EPOCH": "2023-08-02 18:06:01",
    "EPOCH_MICROSECONDS": "409472",
    "MEAN_MOTION": "14.00169008",
    "ECCENTRICITY": "0.0000394",
    "INCLINATION": "77.6112",
    "RA_OF_ASC_NODE": "11.9316",
    "ARG_OF_PERICENTER": "125.3708",
    "MEAN_ANOMALY": "234.7481",
    "EPHEMERIS_TYPE": "0",
    "ELEMENT_SET_NO": "999",
    "REV_AT_EPOCH": "3228",
    "BSTAR": "0.000088968",
    "MEAN_MOTION_DOT": "0.00000129",
    "MEAN_MOTION_DDOT": "0",
    "FILE": "3970017",
    "TLE_LINE0": "0 SWOT",
    "TLE_LINE1": "1 54754U 22173A   23214.75418298  .00000129  00000-0  88968-4 0  9991",
    "TLE_LINE2": "2 54754  77.6112  11.9316 0000394 125.3708 234.7481 14.00169008 32287",
    "OBJECT_ID": "2022-173A",
    "OBJECT_NUMBER": "54754",
    "SEMIMAJOR_AXIS": "7271.347",
    "PERIOD": "102.845",
    "APOGEE": "893.498",
    "PERIGEE": "892.925",
    "DECAYED": "0"
  }
]